start=new Date('2022-05-02T00:00:00.000Z').valueOf();
sats=[{"OBJECT_ID":"2020-006E","GP_ID":"202471898","INCLINATION":"53.0522","OBJECT_NAME":"STARLINK-1134","MEAN_MOTION_DDOT":"0.0000000000000","REF_FRAME":"TEME","FILE":"3424759","OBJECT_TYPE":"PAYLOAD","MEAN_ANOMALY":"301.7219","CENTER_NAME":"EARTH","ECCENTRICITY":"0.00016760","REV_AT_EPOCH":"12424","DECAY_DATE":null,"TLE_LINE1":"1 45048U 20006E   22121.70378623  .00001693  00000-0  13247-3 0  9992","MEAN_MOTION_DOT":"0.00001693","EPHEMERIS_TYPE":"0","COUNTRY_CODE":"US","SITE":"AFETR","PERIAPSIS":"546.029","TLE_LINE2":"2 45048  53.0522 127.3028 0001676  58.3933 301.7219 15.06407941124247","LAUNCH_DATE":"2020-01-29","RCS_SIZE":"LARGE","APOAPSIS":"548.350","TIME_SYSTEM":"UTC","ARG_OF_PERICENTER":"58.3933","BSTAR":"0.00013247000000","RA_OF_ASC_NODE":"127.3028","MEAN_ELEMENT_THEORY":"SGP4","MEAN_MOTION":"15.06407941","SEMIMAJOR_AXIS":"6925.324","NORAD_CAT_ID":"45048","PERIOD":"95.592","ELEMENT_SET_NO":"999","CLASSIFICATION_TYPE":"U","EPOCH":"2022-05-01T16:53:27.130272"},{"RA_OF_ASC_NODE":"126.6449","BSTAR":"0.00046086000000","ARG_OF_PERICENTER":"109.0155","TIME_SYSTEM":"UTC","APOAPSIS":"540.589","RCS_SIZE":"LARGE","SEMIMAJOR_AXIS":"6918.568","MEAN_MOTION":"15.08615058","MEAN_ELEMENT_THEORY":"SGP4","ELEMENT_SET_NO":"999","PERIOD":"95.452","NORAD_CAT_ID":"45049","EPOCH":"2022-05-01T17:06:48.297600","CLASSIFICATION_TYPE":"U","MEAN_MOTION_DDOT":"0.0000000000000","OBJECT_NAME":"STARLINK-1135","INCLINATION":"53.0534","GP_ID":"202472141","OBJECT_ID":"2020-006F","REV_AT_EPOCH":"12425","ECCENTRICITY":"0.00002250","CENTER_NAME":"EARTH","MEAN_ANOMALY":"251.0859","OBJECT_TYPE":"PAYLOAD","FILE":"3424759","REF_FRAME":"TEME","MEAN_MOTION_DOT":"0.00007011","TLE_LINE1":"1 45049U 20006F   22121.71305900  .00007011  00000-0  46086-3 0  9999","DECAY_DATE":null,"LAUNCH_DATE":"2020-01-29","TLE_LINE2":"2 45049  53.0534 126.6449 0000225 109.0155 251.0859 15.08615058124259","PERIAPSIS":"540.277","SITE":"AFETR","EPHEMERIS_TYPE":"0","COUNTRY_CODE":"US"},{"BSTAR":"0.00005074700000","RA_OF_ASC_NODE":"127.2551","RCS_SIZE":"LARGE","APOAPSIS":"548.630","TIME_SYSTEM":"UTC","ARG_OF_PERICENTER":"50.4679","SEMIMAJOR_AXIS":"6925.375","MEAN_ELEMENT_THEORY":"SGP4","MEAN_MOTION":"15.06391491","NORAD_CAT_ID":"45050","PERIOD":"95.593","ELEMENT_SET_NO":"999","CLASSIFICATION_TYPE":"U","EPOCH":"2022-05-01T17:09:22.619232","INCLINATION":"53.0519","OBJECT_NAME":"STARLINK-1140","MEAN_MOTION_DDOT":"0.0000000000000","OBJECT_ID":"2020-006G","GP_ID":"202470898","OBJECT_TYPE":"PAYLOAD","MEAN_ANOMALY":"309.6487","CENTER_NAME":"EARTH","ECCENTRICITY":"0.00020070","REV_AT_EPOCH":"12424","REF_FRAME":"TEME","FILE":"3424759","MEAN_MOTION_DOT":"0.00000474","TLE_LINE1":"1 45050U 20006G   22121.71484513  .00000474  00000-0  50747-4 0  9995","DECAY_DATE":null,"LAUNCH_DATE":"2020-01-29","COUNTRY_CODE":"US","EPHEMERIS_TYPE":"0","SITE":"AFETR","PERIAPSIS":"545.850","TLE_LINE2":"2 45050  53.0519 127.2551 0002007  50.4679 309.6487 15.06391491124241"},{"MEAN_MOTION_DDOT":"0.0000000000000","OBJECT_NAME":"STARLINK-1141","INCLINATION":"53.0501","GP_ID":"202435597","OBJECT_ID":"2020-006H","REV_AT_EPOCH":"12421","ECCENTRICITY":"0.00025000","CENTER_NAME":"EARTH","MEAN_ANOMALY":"314.5844","OBJECT_TYPE":"PAYLOAD","FILE":"3424314","REF_FRAME":"TEME","MEAN_MOTION_DOT":"0.00022553","DECAY_DATE":null,"TLE_LINE1":"1 45051U 20006H   22121.29454836  .00022553  00000-0  13547-2 0  9991","LAUNCH_DATE":"2020-01-29","PERIAPSIS":"531.955","TLE_LINE2":"2 45051  53.0501 126.8375 0002500  45.5351 314.5844 15.10825647124211","SITE":"AFETR","EPHEMERIS_TYPE":"0","COUNTRY_CODE":"US","RA_OF_ASC_NODE":"126.8375","BSTAR":"0.00135470000000","TIME_SYSTEM":"UTC","ARG_OF_PERICENTER":"45.5351","APOAPSIS":"535.411","RCS_SIZE":"LARGE","SEMIMAJOR_AXIS":"6911.818","MEAN_MOTION":"15.10825647","MEAN_ELEMENT_THEORY":"SGP4","ELEMENT_SET_NO":"999","PERIOD":"95.312","NORAD_CAT_ID":"45051","EPOCH":"2022-05-01T07:04:08.978304","CLASSIFICATION_TYPE":"U"},{"GP_ID":"202471398","OBJECT_ID":"2020-006J","OBJECT_NAME":"STARLINK-1148","MEAN_MOTION_DDOT":"0.0000000000000","INCLINATION":"53.0537","FILE":"3424759","REF_FRAME":"TEME","ECCENTRICITY":"0.00015340","REV_AT_EPOCH":"12424","OBJECT_TYPE":"PAYLOAD","MEAN_ANOMALY":"301.5697","CENTER_NAME":"EARTH","DECAY_DATE":null,"TLE_LINE1":"1 45052U 20006J   22121.72220695  .00000863  00000-0  76855-4 0  9997","MEAN_MOTION_DOT":"0.00000863","SITE":"AFETR","PERIAPSIS":"546.153","TLE_LINE2":"2 45052  53.0537 127.2250 0001534  58.5441 301.5697 15.06399551124248","COUNTRY_CODE":"US","EPHEMERIS_TYPE":"0","LAUNCH_DATE":"2020-01-29","ARG_OF_PERICENTER":"58.5441","TIME_SYSTEM":"UTC","RCS_SIZE":"LARGE","APOAPSIS":"548.277","BSTAR":"0.00007685500000","RA_OF_ASC_NODE":"127.2250","MEAN_ELEMENT_THEORY":"SGP4","MEAN_MOTION":"15.06399551","SEMIMAJOR_AXIS":"6925.350","PERIOD":"95.592","ELEMENT_SET_NO":"999","NORAD_CAT_ID":"45052","EPOCH":"2022-05-01T17:19:58.680480","CLASSIFICATION_TYPE":"U"},{"LAUNCH_DATE":"2020-01-29","PERIAPSIS":"530.641","TLE_LINE2":"2 45053  52.9999 121.4036 0001980  54.6639 305.4536 15.11374467124293","SITE":"AFETR","EPHEMERIS_TYPE":"0","COUNTRY_CODE":"US","MEAN_MOTION_DOT":"0.00007403","TLE_LINE1":"1 45053U 20006K   22121.70283421  .00007403  00000-0  45054-3 0  9995","DECAY_DATE":null,"REV_AT_EPOCH":"12429","ECCENTRICITY":"0.00019800","CENTER_NAME":"EARTH","MEAN_ANOMALY":"305.4536","OBJECT_TYPE":"PAYLOAD","FILE":"3424759","REF_FRAME":"TEME","MEAN_MOTION_DDOT":"0.0000000000000","OBJECT_NAME":"STARLINK-1155","INCLINATION":"52.9999","GP_ID":"202471641","OBJECT_ID":"2020-006K","EPOCH":"2022-05-01T16:52:04.875744","CLASSIFICATION_TYPE":"U","ELEMENT_SET_NO":"999","PERIOD":"95.278","NORAD_CAT_ID":"45053","SEMIMAJOR_AXIS":"6910.144","MEAN_MOTION":"15.11374467","MEAN_ELEMENT_THEORY":"SGP4","RA_OF_ASC_NODE":"121.4036","BSTAR":"0.00045054000000","TIME_SYSTEM":"UTC","ARG_OF_PERICENTER":"54.6639","APOAPSIS":"533.378","RCS_SIZE":"LARGE"},{"CLASSIFICATION_TYPE":"U","EPOCH":"2022-05-01T17:14:40.923744","NORAD_CAT_ID":"45054","ELEMENT_SET_NO":"999","PERIOD":"95.593","SEMIMAJOR_AXIS":"6925.372","MEAN_MOTION":"15.06392263","MEAN_ELEMENT_THEORY":"SGP4","RA_OF_ASC_NODE":"127.2572","BSTAR":"0.00004507800000","APOAPSIS":"548.579","RCS_SIZE":"LARGE","ARG_OF_PERICENTER":"57.9310","TIME_SYSTEM":"UTC","LAUNCH_DATE":"2020-01-29","COUNTRY_CODE":"US","EPHEMERIS_TYPE":"0","PERIAPSIS":"545.896","TLE_LINE2":"2 45054  53.0537 127.2572 0001937  57.9310 302.1867 15.06392263124241","SITE":"AFETR","MEAN_MOTION_DOT":"0.00000390","TLE_LINE1":"1 45054U 20006L   22121.71852921  .00000390  00000-0  45078-4 0  9999","DECAY_DATE":null,"CENTER_NAME":"EARTH","MEAN_ANOMALY":"302.1867","OBJECT_TYPE":"PAYLOAD","REV_AT_EPOCH":"12424","ECCENTRICITY":"0.00019370","REF_FRAME":"TEME","FILE":"3424759","INCLINATION":"53.0537","MEAN_MOTION_DDOT":"0.0000000000000","OBJECT_NAME":"STARLINK-1156","OBJECT_ID":"2020-006L","GP_ID":"202470398"},{"MEAN_ELEMENT_THEORY":"SGP4","MEAN_MOTION":"15.06400554","SEMIMAJOR_AXIS":"6925.347","RCS_SIZE":"LARGE","APOAPSIS":"548.392","TIME_SYSTEM":"UTC","ARG_OF_PERICENTER":"54.4337","BSTAR":"0.00008558500000","RA_OF_ASC_NODE":"127.1649","CLASSIFICATION_TYPE":"U","EPOCH":"2022-05-01T17:35:54.236832","NORAD_CAT_ID":"45057","PERIOD":"95.592","ELEMENT_SET_NO":"999","REF_FRAME":"TEME","FILE":"3424759","MEAN_ANOMALY":"305.6810","OBJECT_TYPE":"PAYLOAD","CENTER_NAME":"EARTH","ECCENTRICITY":"0.00017040","REV_AT_EPOCH":"12425","OBJECT_ID":"2020-006P","GP_ID":"202471149","INCLINATION":"53.0542","OBJECT_NAME":"STARLINK-1159","MEAN_MOTION_DDOT":"0.0000000000000","COUNTRY_CODE":"US","EPHEMERIS_TYPE":"0","SITE":"AFETR","PERIAPSIS":"546.032","TLE_LINE2":"2 45057  53.0542 127.1649 0001704  54.4337 305.6810 15.06400554124257","LAUNCH_DATE":"2020-01-29","DECAY_DATE":null,"TLE_LINE1":"1 45057U 20006P   22121.73326663  .00000993  00000-0  85585-4 0  9999","MEAN_MOTION_DOT":"0.00000993"},{"PERIAPSIS":"545.977","TLE_LINE2":"2 45058  53.0526 127.2041 0001798  51.9696 308.1455 15.06397156124256","SITE":"AFETR","COUNTRY_CODE":"US","EPHEMERIS_TYPE":"0","LAUNCH_DATE":"2020-01-29","TLE_LINE1":"1 45058U 20006Q   22121.72589668  .00000750  00000-0  69223-4 0  9997","DECAY_DATE":null,"MEAN_MOTION_DOT":"0.00000750","FILE":"3424759","REF_FRAME":"TEME","REV_AT_EPOCH":"12425","ECCENTRICITY":"0.00017980","CENTER_NAME":"EARTH","MEAN_ANOMALY":"308.1455","OBJECT_TYPE":"PAYLOAD","GP_ID":"202471899","OBJECT_ID":"2020-006Q","MEAN_MOTION_DDOT":"0.0000000000000","OBJECT_NAME":"STARLINK-1162","INCLINATION":"53.0526","EPOCH":"2022-05-01T17:25:17.473152","CLASSIFICATION_TYPE":"U","ELEMENT_SET_NO":"999","PERIOD":"95.592","NORAD_CAT_ID":"45058","MEAN_MOTION":"15.06397156","MEAN_ELEMENT_THEORY":"SGP4","SEMIMAJOR_AXIS":"6925.357","ARG_OF_PERICENTER":"51.9696","TIME_SYSTEM":"UTC","APOAPSIS":"548.467","RCS_SIZE":"LARGE","RA_OF_ASC_NODE":"127.2041","BSTAR":"0.00006922300000"},{"GP_ID":"202472142","OBJECT_ID":"2020-006R","MEAN_MOTION_DDOT":"0.0000000000000","OBJECT_NAME":"STARLINK-1165","INCLINATION":"53.0555","FILE":"3424759","REF_FRAME":"TEME","REV_AT_EPOCH":"12425","ECCENTRICITY":"0.00018470","CENTER_NAME":"EARTH","OBJECT_TYPE":"PAYLOAD","MEAN_ANOMALY":"297.7903","TLE_LINE1":"1 45059U 20006R   22121.74801893  .00000752  00000-0  69407-4 0  9993","DECAY_DATE":null,"MEAN_MOTION_DOT":"0.00000752","TLE_LINE2":"2 45059  53.0555 127.1202 0001847  62.3273 297.7903 15.06390506124252","PERIAPSIS":"545.964","SITE":"AFETR","COUNTRY_CODE":"US","EPHEMERIS_TYPE":"0","LAUNCH_DATE":"2020-01-29","TIME_SYSTEM":"UTC","ARG_OF_PERICENTER":"62.3273","APOAPSIS":"548.522","RCS_SIZE":"LARGE","RA_OF_ASC_NODE":"127.1202","BSTAR":"0.00006940700000","MEAN_MOTION":"15.06390506","MEAN_ELEMENT_THEORY":"SGP4","SEMIMAJOR_AXIS":"6925.378","ELEMENT_SET_NO":"999","PERIOD":"95.593","NORAD_CAT_ID":"45059","EPOCH":"2022-05-01T17:57:08.835552","CLASSIFICATION_TYPE":"U"}];
